{"type": "FeatureCollection", "features": [ {"type": "Feature", "properties": {"norad_id": 32289, "name": "YAOGAN-3", "group": "resource", "lat": 79.80995498865424, "lon": -111.19978320935101, "alt_km": 590.0536548726077, "timestamp": "2025-12-18T04:58:34.237195+00:00", "meta": {"OBJECT_NAME": "YAOGAN-3", "OBJECT_ID": "2007-055A", "EPOCH": "2025-12-17T23:42:32.824224", "MEAN_MOTION": 14.8988474, "ECCENTRICITY": 0.00013378, "INCLINATION": 97.8367, "RA_OF_ASC_NODE": 18.5662, "ARG_OF_PERICENTER": 74.3559, "MEAN_ANOMALY": 285.7806, "EPHEMERIS_TYPE": 0, "CLASSIFICATION_TYPE": "U", "NORAD_CAT_ID": 32289, "ELEMENT_SET_NO": 999, "REV_AT_EPOCH": 97887, "BSTAR": 0.00018830018, "MEAN_MOTION_DOT": 1.755e-05, "MEAN_MOTION_DDOT": 0}, "tle": {"line1": "1 32289U 07055A   25351.98787991  .00001755  00000+0  18830-3 0  9995", "line2": "2 32289  97.8367  18.5662 0001337  74.3559 285.7806 14.89884740978879"}}, "geometry": {"type": "Point", "coordinates": [-111.19978320935101, 79.80995498865424]}}, {"type": "Feature", "properties": {"norad_id": 32376, "name": "COSMO-SKYMED 2", "group": "resource", "lat": -43.44362096715394, "lon": -14.088913643426316, "alt_km": 629.9830514692821, "timestamp": "2025-12-18T04:58:34.237218+00:00", "meta": {"OBJECT_NAME": "COSMO-SKYMED 2", "OBJECT_ID": "2007-059A", "EPOCH": "2025-12-17T23:06:30.528576", "MEAN_MOTION": 14.82148875, "ECCENTRICITY": 0.00013587, "INCLINATION": 97.8803, "RA_OF_ASC_NODE": 173.208, "ARG_OF_PERICENTER": 82.788, "MEAN_ANOMALY": 277.3488, "EPHEMERIS_TYPE": 0, "CLASSIFICATION_TYPE": "U", "NORAD_CAT_ID": 32376, "ELEMENT_SET_NO": 999, "REV_AT_EPOCH": 97515, "BSTAR": 6.2285251e-05, "MEAN_MOTION_DOT": 4.44e-06, "MEAN_MOTION_DDOT": 0}, "tle": {"line1": "1 32376U 07059A   25351.96285334  .00000444  00000+0  62285-4 0  9996", "line2": "2 32376  97.8803 173.2080 0001358  82.7880 277.3488 14.82148875975153"}}, "geometry": {"type": "Point", "coordinates": [-14.088913643426316, -43.44362096715394]}}, {"type": "Feature", "properties": {"norad_id": 32382, "name": "RADARSAT-2", "group": "resource", "lat": -47.005067001736414, "lon": 167.39991065298673, "alt_km": 799.2015230011393, "timestamp": "2025-12-18T04:58:34.237230+00:00", "meta": {"OBJECT_NAME": "RADARSAT-2", "OBJECT_ID": "2007-061A", "EPOCH": "2025-12-17T22:52:37.680960", "MEAN_MOTION": 14.29982974, "ECCENTRICITY": 0.00011051, "INCLINATION": 98.5795, "RA_OF_ASC_NODE": 356.4679, "ARG_OF_PERICENTER": 83.5066, "MEAN_ANOMALY": 276.6242, "EPHEMERIS_TYPE": 0, "CLASSIFICATION_TYPE": "U", "NORAD_CAT_ID": 32382, "ELEMENT_SET_NO": 999, "REV_AT_EPOCH": 94005, "BSTAR": 4.73954e-07, "MEAN_MOTION_DOT": -4.2e-07, "MEAN_MOTION_DDOT": 0}, "tle": {"line1": "1 32382U 07061A   25351.95321390 -.00000042  00000+0  47395-6 0  9990", "line2": "2 32382  98.5795 356.4679 0001105  83.5066 276.6242 14.29982974940050"}}, "geometry": {"type": "Point", "coordinates": [167.39991065298673, -47.005067001736414]}}, {"type": "Feature", "properties": {"norad_id": 32783, "name": "CARTOSAT-2A", "group": "resource", "lat": -58.86492446850411, "lon": 54.963951344801515, "alt_km": 634.2413148017513, "timestamp": "2025-12-18T04:58:34.237242+00:00", "meta": {"OBJECT_NAME": "CARTOSAT-2A", "OBJECT_ID": "2008-021A", "EPOCH": "2025-12-17T22:45:01.238400", "MEAN_MOTION": 14.78945231, "ECCENTRICITY": 0.00115149, "INCLINATION": 97.793, "RA_OF_ASC_NODE": 41.6091, "ARG_OF_PERICENTER": 347.8122, "MEAN_ANOMALY": 12.281, "EPHEMERIS_TYPE": 0, "CLASSIFICATION_TYPE": "U", "NORAD_CAT_ID": 32783, "ELEMENT_SET_NO": 999, "REV_AT_EPOCH": 95201, "BSTAR": 4.8576885e-05, "MEAN_MOTION_DOT": 3.08e-06, "MEAN_MOTION_DDOT": 0}, "tle": {"line1": "1 32783U 08021A   25351.94793100  .00000308  00000+0  48577-4 0  9998", "line2": "2 32783  97.7930  41.6091 0011514 347.8122  12.2810 14.78945231952015"}}, "geometry": {"type": "Point", "coordinates": [54.963951344801515, -58.86492446850411]}}, {"type": "Feature", "properties": {"norad_id": 33320, "name": "HUANJING 1A (HJ-1A)", "group": "resource", "lat": -71.64518311722065, "lon": 136.36732216039957, "alt_km": 633.6120729027216, "timestamp": "2025-12-18T04:58:34.237253+00:00", "meta": {"OBJECT_NAME": "HUANJING 1A (HJ-1A)", "OBJECT_ID": "2008-041A", "EPOCH": "2025-12-17T22:58:50.776896", "MEAN_MOTION": 14.83411615, "ECCENTRICITY": 0.00198447, "INCLINATION": 97.6537, "RA_OF_ASC_NODE": 340.0384, "ARG_OF_PERICENTER": 17.9738, "MEAN_ANOMALY": 342.2174, "EPHEMERIS_TYPE": 0, "CLASSIFICATION_TYPE": "U", "NORAD_CAT_ID": 33320, "ELEMENT_SET_NO": 999, "REV_AT_EPOCH": 93153, "BSTAR": 0.00014641567, "MEAN_MOTION_DOT": 1.154e-05, "MEAN_MOTION_DDOT": 0}, "tle": {"line1": "1 33320U 08041A   25351.95753214  .00001154  00000+0  14642-3 0  9996", "line2": "2 33320  97.6537 340.0384 0019844  17.9738 342.2174 14.83411615931531"}}, "geometry": {"type": "Point", "coordinates": [136.36732216039957, -71.64518311722065]}}, {"type": "Feature", "properties": {"norad_id": 33321, "name": "HUANJING 1B (HJ-1B)", "group": "resource", "lat": 74.48591963713764, "lon": -167.12327119559012, "alt_km": 594.4637291825256, "timestamp": "2025-12-18T04:58:34.237263+00:00", "meta": {"OBJECT_NAME": "HUANJING 1B (HJ-1B)", "OBJECT_ID": "2008-041B", "EPOCH": "2025-12-17T23:39:20.024352", "MEAN_MOTION": 14.82833358, "ECCENTRICITY": 0.00381048, "INCLINATION": 97.6396, "RA_OF_ASC_NODE": 343.7487, "ARG_OF_PERICENTER": 59.0167, "MEAN_ANOMALY": 301.4782, "EPHEMERIS_TYPE": 0, "CLASSIFICATION_TYPE": "U", "NORAD_CAT_ID": 33321, "ELEMENT_SET_NO": 999, "REV_AT_EPOCH": 93155, "BSTAR": 7.3055974e-05, "MEAN_MOTION_DOT": 5.47e-06, "MEAN_MOTION_DDOT": 0}, "tle": {"line1": "1 33321U 08041B   25351.98564843  .00000547  00000+0  73056-4 0  9998", "line2": "2 33321  97.6396 343.7487 0038104  59.0167 301.4782 14.82833358931557"}}, "geometry": {"type": "Point", "coordinates": [-167.12327119559012, 74.48591963713764]}}, {"type": "Feature", "properties": {"norad_id": 33331, "name": "GEOEYE 1", "group": "resource", "lat": 80.81540339042309, "lon": -54.50902002430504, "alt_km": 672.4961861513748, "timestamp": "2025-12-18T04:58:34.237274+00:00", "meta": {"OBJECT_NAME": "GEOEYE 1", "OBJECT_ID": "2008-042A", "EPOCH": "2025-12-17T20:20:58.281792", "MEAN_MOTION": 14.64707321, "ECCENTRICITY": 0.00027718, "INCLINATION": 98.1248, "RA_OF_ASC_NODE": 63.0645, "ARG_OF_PERICENTER": 263.096, "MEAN_ANOMALY": 96.9928, "EPHEMERIS_TYPE": 0, "CLASSIFICATION_TYPE": "U", "NORAD_CAT_ID": 33331, "ELEMENT_SET_NO": 999, "REV_AT_EPOCH": 92360, "BSTAR": 0.00010450993, "MEAN_MOTION_DOT": 5.09e-06, "MEAN_MOTION_DDOT": 0}, "tle": {"line1": "1 33331U 08042A   25351.84789678  .00000509  00000+0  10451-3 0  9997", "line2": "2 33331  98.1248  63.0645 0002771 263.0960  96.9928 14.64707321923602"}}, "geometry": {"type": "Point", "coordinates": [-54.50902002430504, 80.81540339042309]}}, {"type": "Feature", "properties": {"norad_id": 33396, "name": "THEOS", "group": "resource", "lat": 26.031053275024, "lon": -125.63200158239994, "alt_km": 823.6526884848045, "timestamp": "2025-12-18T04:58:34.237285+00:00", "meta": {"OBJECT_NAME": "THEOS", "OBJECT_ID": "2008-049A", "EPOCH": "2025-12-17T23:10:57.532224", "MEAN_MOTION": 14.20096104, "ECCENTRICITY": 0.0001181, "INCLINATION": 98.5868, "RA_OF_ASC_NODE": 49.9017, "ARG_OF_PERICENTER": 94.0662, "MEAN_ANOMALY": 266.065, "EPHEMERIS_TYPE": 0, "CLASSIFICATION_TYPE": "U", "NORAD_CAT_ID": 33396, "ELEMENT_SET_NO": 999, "REV_AT_EPOCH": 89224, "BSTAR": -0.00011785625, "MEAN_MOTION_DOT": -2.94e-06, "MEAN_MOTION_DDOT": 0}, "tle": {"line1": "1 33396U 08049A   25351.96594366 -.00000294  00000+0 -11786-3 0  9991", "line2": "2 33396  98.5868  49.9017 0001181  94.0662 266.0650 14.20096104892245"}}, "geometry": {"type": "Point", "coordinates": [-125.63200158239994, 26.031053275024]}}, {"type": "Feature", "properties": {"norad_id": 33412, "name": "COSMO-SKYMED 3", "group": "resource", "lat": 62.051027762706795, "lon": 37.75768215621445, "alt_km": 535.0587281377948, "timestamp": "2025-12-18T04:58:34.237296+00:00", "meta": {"OBJECT_NAME": "COSMO-SKYMED 3", "OBJECT_ID": "2008-054A", "EPOCH": "2025-12-17T22:04:39.897408", "MEAN_MOTION": 15.05406263, "ECCENTRICITY": 0.0016582, "INCLINATION": 97.8472, "RA_OF_ASC_NODE": 202.3988, "ARG_OF_PERICENTER": 154.9835, "MEAN_ANOMALY": 205.2198, "EPHEMERIS_TYPE": 0, "CLASSIFICATION_TYPE": "U", "NORAD_CAT_ID": 33412, "ELEMENT_SET_NO": 999, "REV_AT_EPOCH": 92965, "BSTAR": 0.0002930482, "MEAN_MOTION_DOT": 4.151e-05, "MEAN_MOTION_DDOT": 0}, "tle": {"line1": "1 33412U 08054A   25351.91990622  .00004151  00000+0  29305-3 0  9996", "line2": "2 33412  97.8472 202.3988 0016582 154.9835 205.2198 15.05406263929651"}}, "geometry": {"type": "Point", "coordinates": [37.75768215621445, 62.051027762706795]}}, {"type": "Feature", "properties": {"norad_id": 33446, "name": "YAOGAN-4", "group": "resource", "lat": 12.16160969833949, "lon": -79.46590697060033, "alt_km": 618.6500028464834, "timestamp": "2025-12-18T04:58:34.237307+00:00", "meta": {"OBJECT_NAME": "YAOGAN-4", "OBJECT_ID": "2008-061A", "EPOCH": "2025-12-17T19:12:11.057472", "MEAN_MOTION": 14.82697183, "ECCENTRICITY": 0.00132703, "INCLINATION": 97.9187, "RA_OF_ASC_NODE": 281.8498, "ARG_OF_PERICENTER": 305.6483, "MEAN_ANOMALY": 54.3494, "EPHEMERIS_TYPE": 0, "CLASSIFICATION_TYPE": "U", "NORAD_CAT_ID": 33446, "ELEMENT_SET_NO": 999, "REV_AT_EPOCH": 91878, "BSTAR": 0.00014708521, "MEAN_MOTION_DOT": 1.134e-05, "MEAN_MOTION_DDOT": 0}, "tle": {"line1": "1 33446U 08061A   25351.80012798  .00001134  00000+0  14709-3 0  9998", "line2": "2 33446  97.9187 281.8498 0013270 305.6483  54.3494 14.82697183918786"}}, "geometry": {"type": "Point", "coordinates": [-79.46590697060033, 12.16160969833949]}}]}